QIANFAN-73              
1 63159U 25046A   26008.19445609  .00000204  00000+0  29704-3 0  9995
2 63159  88.9787 317.2870 0016812  50.7236 309.5403 13.50986123 50986
QIANFAN-74              
1 63160U 25046B   26008.17789115  .00000217  00000+0  31819-3 0  9992
2 63160  88.9787 317.1775 0001952  70.0730 290.0631 13.50983172 51040
QIANFAN-75              
1 63161U 25046C   26008.09103186  .00000202  00000+0  29404-3 0  9993
2 63161  88.9788 317.4206 0018034  53.3273 306.9533 13.50985877 50905
QIANFAN-76              
1 63162U 25046D   26008.16174647  .00000203  00000+0  29605-3 0  9996
2 63162  88.9787 317.3936 0015593  54.0555 306.2040 13.50988474 50926
QIANFAN-77              
1 63163U 25046E   26008.13289037  .00000496  00000+0  35117-3 0  9993
2 63163  88.9788 315.1873 0015493   6.5464 353.5912 13.96115079 52135
QIANFAN-78              
1 63164U 25046F   26008.12858858  .00000214  00000+0  31225-3 0  9990
2 63164  88.9787 317.2608 0017000  55.9366 304.3396 13.50987111 50995
QIANFAN-79              
1 63165U 25046G   26008.15722322  .00000054  00000+0  65227-4 0  9992
2 63165  88.9790 317.3664 0016695  54.3772 305.8932 13.50983961 50942
QIANFAN-80              
1 63166U 25046H   26008.17377473  .00000207  00000+0  30164-3 0  9999
2 63166  88.9788 317.0709 0015675  58.2082 302.0594 13.50986996 51104
